NORAD_CAT_ID,OBJECT_NAME,OBJECT_TYPE,EPOCH,MEAN_MOTION,ECCENTRICITY,INCLINATION,RA_OF_ASC_NODE,ARG_OF_PERICENTER,MEAN_ANOMALY,BSTAR,MEAN_MOTION_DOT,MEAN_MOTION_DDOT,TLE_LINE0,TLE_LINE1,TLE_LINE2,SEMIMAJOR_AXIS,PERIOD,APOGEE,PERIGEE,DECAYED
51811.0,STARLINK-3569,PAYLOAD,2022-05-15 20:00:01,15.28023029,0.0001828,53.2173,117.1357,35.0758,47.6662,-0.028044,-0.00724875,0.0,0 STARLINK-3569,1 51811U 22017AV  22135.83334491 -.00724875  00000-0 -28044-1 0  9990,2 51811  53.2173 117.1357 0001828  35.0758  47.6662 15.28023029 13626,6859.86,94.239,482.979,480.471,0.0
51811.0,STARLINK-3569,PAYLOAD,2022-05-15 22:00:00,15.27896284,0.0001889,53.2173,116.7512,39.6159,141.7663,-0.028176,-0.00725429,0.0,0 STARLINK-3569,1 51811U 22017AV  22135.91667824 -.00725429  00000-0 -28176-1 0  9990,2 51811  53.2173 116.7512 0001889  39.6159 141.7663 15.27896284  1305,6860.239000000001,94.247,483.4,480.8080000000001,0.0
51811.0,STARLINK-3569,PAYLOAD,2022-05-16 14:00:01,15.26876988,0.0001633,53.2173,113.6773,48.7612,200.3674,-0.029144,-0.00727164,0.0,0 STARLINK-3569,1 51811U 22017AV  22136.58334491 -.00727164  00000-0 -29144-1 0  9999,2 51811  53.2173 113.6773 0001633  48.7612 200.3674 15.26876988  1304,6863.292,94.31,486.278,484.036,0.0
51811.0,STARLINK-3569,PAYLOAD,2022-05-16 20:00:01,15.2649396,0.000185,53.2171,112.5244,40.0148,143.8879,-0.029458,-0.00726547,0.0,0 STARLINK-3569,1 51811U 22017AV  22136.83334491 -.00726547  00000-0 -29458-1 0  9999,2 51811  53.2171 112.5244 0001850  40.0148 143.8879 15.26493960 13770,6864.44,94.334,487.575,485.035,0.0
51811.0,STARLINK-3569,PAYLOAD,2022-05-16 22:00:00,15.26364979,0.0001721999999999,53.2174,112.1405,43.3727,238.7114,-0.029408,-0.00722728,0.0,0 STARLINK-3569,1 51811U 22017AV  22136.91667824 -.00722728  00000-0 -29408-1 0  9999,2 51811  53.2174 112.1405 0001722  43.3727 238.7114 15.26364979  1304,6864.8269999999975,94.342,487.874,485.51,0.0
51811.0,STARLINK-3569,PAYLOAD,2022-05-17 14:00:01,15.25347146,0.0001655,53.2174,109.0738,39.7307,306.4861,-0.03054,-0.0072741,0.0,0 STARLINK-3569,1 51811U 22017AV  22137.58335648 -.00727410  00000-0 -30540-1 0  9991,2 51811  53.2174 109.0738 0001655  39.7307 306.4861 15.25347146  1304,6867.88,94.405,490.882,488.609,0.0
51811.0,STARLINK-3569,PAYLOAD,2022-05-17 22:00:01,15.24834262,0.0001735,53.2175,107.541,36.856,340.478,-0.030742,-0.00721415,0.0,0 STARLINK-3569,1 51811U 22017AV  22137.91668981 -.00721415  00000-0 -30742-1 0  9990,2 51811  53.2175 107.5410 0001735  36.8560 340.4780 15.24834262  1300,6869.42,94.436,492.477,490.093,0.0
51811.0,STARLINK-3569,PAYLOAD,2022-05-18 04:00:01,15.24452732,0.0001993,53.2173,106.3943,32.5706,277.6972,-0.031205,-0.00723789,0.0,0 STARLINK-3569,1 51811U 22017AV  22138.16668981 -.00723789  00000-0 -31205-1 0  9999,2 51811  53.2173 106.3943 0001993  32.5706 277.6972 15.24452732 13986,6870.566,94.46,493.801,491.062,0.0
51811.0,STARLINK-3569,PAYLOAD,2022-05-18 14:00:01,15.23816033,0.0001806,53.2174,104.4813,34.9167,42.7464,-0.031862,-0.00724943,0.0,0 STARLINK-3569,1 51811U 22017AV  22138.58334491 -.00724943  00000-0 -31862-1 0  9993,2 51811  53.2174 104.4813 0001806  34.9167  42.7464 15.23816033  1309,6872.48,94.5,495.586,493.104,0.0
51811.0,STARLINK-3569,PAYLOAD,2022-05-18 22:00:00,15.23305176,0.000192,53.2175,102.952,35.0891,71.8522,-0.032248,-0.00722776,0.0,0 STARLINK-3569,1 51811U 22017AV  22138.91667824 -.00722776  00000-0 -32248-1 0  9990,2 51811  53.2175 102.9520 0001920  35.0891  71.8522 15.23305176  1300,6874.016,94.531,497.201,494.562,0.0
51811.0,STARLINK-3569,PAYLOAD,2022-05-19 04:00:00,15.22924319,0.0002126,53.2174,101.8081,27.154,11.342,-0.032785,-0.00726292,0.0,0 STARLINK-3569,1 51811U 22017AV  22139.16667824 -.00726292  00000-0 -32785-1 0  9991,2 51811  53.2174 101.8081 0002126  27.1540  11.3420 15.22924319 14137,6875.1619999999975,94.555,498.489,495.566,0.0
51811.0,STARLINK-3569,PAYLOAD,2022-05-19 14:00:01,15.22286256,0.000175,53.2174,99.8994,44.3478,119.3731,-0.033343,-0.00724832,0.0,0 STARLINK-3569,1 51811U 22017AV  22139.58335648 -.00724832  00000-0 -33343-1 0  9992,2 51811  53.2174  99.8994 0001750  44.3478 119.3731 15.22286256  1309,6877.083000000001,94.595,500.152,497.745,0.0
51811.0,STARLINK-3569,PAYLOAD,2022-05-19 22:00:00,15.21775715,0.0001933,53.2175,98.3741,40.2454,150.8515,-0.0337709999999999,-0.00723253,0.0,0 STARLINK-3569,1 51811U 22017AV  22139.91667824 -.00723253  00000-0 -33771-1 0  9994,2 51811  53.2175  98.3741 0001933  40.2454 150.8515 15.21775715  1308,6878.621,94.626,501.816,499.157,0.0
51811.0,STARLINK-3569,PAYLOAD,2022-05-20 12:00:00,15.20882873,0.0001739,53.2173,95.7093,43.5252,104.1158,-0.034671,-0.00723204,0.0,0 STARLINK-3569,1 51811U 22017AV  22140.50001157 -.00723204  00000-0 -34671-1 0  9998,2 51811  53.2173  95.7093 0001739  43.5252 104.1158 15.20882873 14338,6881.313,94.682,504.375,501.982,0.0
51811.0,STARLINK-3569,PAYLOAD,2022-05-20 14:00:01,15.20757356,0.0001655,53.2175,95.3283,49.1644,194.9721,-0.034974,-0.00726582,0.0,0 STARLINK-3569,1 51811U 22017AV  22140.58334491 -.00726582  00000-0 -34974-1 0  9994,2 51811  53.2175  95.3283 0001655  49.1644 194.9721 15.20757356  1304,6881.691999999999,94.69,504.696,502.418,0.0
51811.0,STARLINK-3569,PAYLOAD,2022-05-20 22:00:00,15.20245871,0.0001739,53.2175,93.8066,45.3321,224.4058,-0.035324,-0.0072316999999999,0.0,0 STARLINK-3569,1 51811U 22017AV  22140.91667824 -.00723170  00000-0 -35324-1 0  9990,2 51811  53.2175  93.8066 0001739  45.3321 224.4058 15.20245871  1305,6883.235,94.722,506.297,503.903,0.0
51811.0,STARLINK-3569,PAYLOAD,2022-05-21 06:00:00,15.19734976,0.0001876,53.2176,92.2883,39.0648,255.6605,-0.0358,-0.00722127,0.0,0 STARLINK-3569,1 51811U 22017AV  22141.25001157 -.00722127  00000-0 -35800-1 0  9999,2 51811  53.2176  92.2883 0001876  39.0648 255.6605 15.19734976  1301,6884.778,94.753,507.934,505.351,0.0
51811.0,STARLINK-3569,PAYLOAD,2022-05-21 12:00:00,15.19354191,0.0001839,53.2173,91.1479,40.2102,182.8541,-0.03637,-0.00725281,0.0,0 STARLINK-3569,1 51811U 22017AV  22141.50001157 -.00725281  00000-0 -36370-1 0  9994,2 51811  53.2173  91.1479 0001839  40.2102 182.8541 15.19354191 14496,6885.928000000001,94.777,509.06,506.527,0.0
51811.0,STARLINK-3569,PAYLOAD,2022-05-21 14:00:01,15.19227236,0.0001695,53.2175,90.7679,40.1356,279.0285,-0.036572,-0.00726508,0.0,0 STARLINK-3569,1 51811U 22017AV  22141.58335648 -.00726508  00000-0 -36572-1 0  9994,2 51811  53.2175  90.7679 0001695  40.1356 279.0285 15.19227236  1304,6886.312,94.785,509.344,507.01,0.0
51811.0,STARLINK-3569,PAYLOAD,2022-05-21 22:00:00,15.18716355,0.0001785,53.2176,89.25,38.4057,304.4578,-0.036983,-0.0072402,0.0,0 STARLINK-3569,1 51811U 22017AV  22141.91667824 -.00724020  00000-0 -36983-1 0  9998,2 51811  53.2176  89.2500 0001785  38.4057 304.4578 15.18716355  1301,6887.856,94.817,510.951,508.492,0.0
51811.0,STARLINK-3569,PAYLOAD,2022-05-22 14:00:01,15.17696172,0.0001702,53.2175,86.2183,37.8298,350.7207,-0.038132,-0.00724709,0.0,0 STARLINK-3569,1 51811U 22017AV  22142.58334491 -.00724709  00000-0 -38132-1 0  9995,2 51811  53.2175  86.2183 0001702  37.8298 350.7207 15.17696172  1309,6890.941999999999,94.881,513.98,511.634,0.0
51811.0,STARLINK-3569,PAYLOAD,2022-05-22 20:00:01,15.17311936,0.0001759,53.2175,85.08200000000002,40.717,274.3346,-0.038319,-0.00720537,0.0,0 STARLINK-3569,1 51811U 22017AV  22142.83334491 -.00720537  00000-0 -38319-1 0  9995,2 51811  53.2175  85.0820 0001759  40.7170 274.3346 15.17311936 14691,6892.106,94.905,515.183,512.758,0.0
51811.0,STARLINK-3569,PAYLOAD,2022-05-22 22:00:01,15.1718626,0.0001825,53.2175,84.7042,35.8765,14.6611,-0.038667,-0.00724196,0.0,0 STARLINK-3569,1 51811U 22017AV  22142.91668981 -.00724196  00000-0 -38667-1 0  9999,2 51811  53.2175  84.7042 0001825  35.8765  14.6611 15.17186260  1306,6892.486,94.913,515.609,513.0930000000002,0.0
51811.0,STARLINK-3569,PAYLOAD,2022-05-23 14:00:01,15.1616508,0.0001818,53.2176,81.6794,36.5003,55.9845,-0.039718,-0.00722496,0.0,0 STARLINK-3569,1 51811U 22017AV  22143.58334491 -.00722496  00000-0 -39718-1 0  9998,2 51811  53.2176  81.6794 0001818  36.5003  55.9845 15.16165080  1305,6895.581,94.976,518.6990000000002,516.192,0.0
51811.0,STARLINK-3569,PAYLOAD,2022-05-23 20:00:01,15.157816699999998,0.0001826,53.2175,80.546,35.7843,341.8225,-0.040006,-0.00719977,0.0,0 STARLINK-3569,1 51811U 22017AV  22143.83334491 -.00719977  00000-0 -40006-1 0  9998,2 51811  53.2175  80.5460 0001826  35.7843 341.8225 15.15781670 14844,6896.743,95.0,519.868,517.349,0.0
51811.0,STARLINK-3569,PAYLOAD,2022-05-23 22:00:01,15.15655855,0.0001991,53.2175,80.1689,34.308,78.3254,-0.040372,-0.00723706,0.0,0 STARLINK-3569,1 51811U 22017AV  22143.91668981 -.00723706  00000-0 -40372-1 0  9992,2 51811  53.2175  80.1689 0001991  34.3080  78.3254 15.15655855  1300,6897.125,95.008,520.363,517.617,0.0
51811.0,STARLINK-3569,PAYLOAD,2022-05-24 10:10:53,15.16191649,0.0001801,53.2216,77.8562,36.9196,323.1923,-0.010995,-0.00209089,0.0,0 STARLINK-3569,1 51811U 22017AV  22144.42423136 -.00209089  00000-0 -10995-1 0  9991,2 51811  53.2216  77.8562 0001801  36.9196 323.1923 15.16191649 14939,6895.5,94.975,518.607,516.123,0.0
51811.0,STARLINK-3569,PAYLOAD,2022-05-24 14:00:01,15.14634448,0.0002035,53.2175,77.1512,34.6209,116.2831,-0.041392,-0.00720921,0.0,0 STARLINK-3569,1 51811U 22017AV  22144.58334491 -.00720921  00000-0 -41392-1 0  9991,2 51811  53.2175  77.1512 0002035  34.6209 116.2831 15.14634448  1304,6900.226,95.072,523.495,520.686,0.0
51811.0,STARLINK-3569,PAYLOAD,2022-05-24 20:00:01,15.14252001,0.0001997,53.2175,76.0204,32.539,42.17100000000001,-0.041825,-0.00720618,0.0,0 STARLINK-3569,1 51811U 22017AV  22144.83335648 -.00720618  00000-0 -41825-1 0  9998,2 51811  53.2175  76.0204 0001997  32.5390  42.1710 15.14252001 14997,6901.387,95.096,524.631,521.874,0.0
